[{"OBJECT_NAME":"STARLINK-34316","OBJECT_ID":"2025-142M","EPOCH":"2026-03-09T23:14:56.718528","MEAN_MOTION":14.98336567,"ECCENTRICITY":0.00026396,"INCLINATION":70.0008,"RA_OF_ASC_NODE":313.7099,"ARG_OF_PERICENTER":268.2564,"MEAN_ANOMALY":91.8293,"EPHEMERIS_TYPE":0,"CLASSIFICATION_TYPE":"U","NORAD_CAT_ID":64707,"ELEMENT_SET_NO":999,"REV_AT_EPOCH":3969,"BSTAR":0.00012875823,"MEAN_MOTION_DOT":1.444e-5,"MEAN_MOTION_DDOT":0},{"OBJECT_NAME":"SL-8 DEB","OBJECT_ID":"1971-114C","EPOCH":"2026-03-09T10:06:38.914272","MEAN_MOTION":14.97936297,"ECCENTRICITY":0.00069633,"INCLINATION":74.0033,"RA_OF_ASC_NODE":186.861,"ARG_OF_PERICENTER":298.1447,"MEAN_ANOMALY":61.9034,"EPHEMERIS_TYPE":0,"CLASSIFICATION_TYPE":"U","NORAD_CAT_ID":5778,"ELEMENT_SET_NO":999,"REV_AT_EPOCH":88447,"BSTAR":0.0010014796,"MEAN_MOTION_DOT":0.00011794,"MEAN_MOTION_DDOT":0}]
